CCSDS_OMM_VERS = 2.0
CREATION_DATE  = 
ORIGINATOR     = 

OBJECT_NAME    = IDEFIX & ARIANE 42P R/B
OBJECT_ID      = 2002-021B
CENTER_NAME    = EARTH
REF_FRAME      = TEME
TIME_SYSTEM    = UTC
MEAN_ELEMENT_THEORY = SGP/SGP4

EPOCH          = 2025-12-05T07:28:05.103552
MEAN_MOTION    = 14.30941837
ECCENTRICITY   = .00128645
INCLINATION    = 98.5777
RA_OF_ASC_NODE = 274.0989
ARG_OF_PERICENTER = 103.6661
MEAN_ANOMALY   = 256.5955

EPHEMERIS_TYPE = 0
CLASSIFICATION_TYPE = U
NORAD_CAT_ID   = 27422
ELEMENT_SET_NO = 999
REV_AT_EPOCH   = 23052
BSTAR          = .24688831E-3
MEAN_MOTION_DOT = .606E-5
MEAN_MOTION_DDOT = 0

CCSDS_OMM_VERS = 2.0
CREATION_DATE  = 
ORIGINATOR     = 

OBJECT_NAME    = AQUA
OBJECT_ID      = 2002-022A
CENTER_NAME    = EARTH
REF_FRAME      = TEME
TIME_SYSTEM    = UTC
MEAN_ELEMENT_THEORY = SGP/SGP4

EPOCH          = 2025-12-05T07:20:21.043104
MEAN_MOTION    = 14.61781360
ECCENTRICITY   = .0000847
INCLINATION    = 98.4025
RA_OF_ASC_NODE = 300.0643
ARG_OF_PERICENTER = 111.3897
MEAN_ANOMALY   = 356.5490

EPHEMERIS_TYPE = 0
CLASSIFICATION_TYPE = U
NORAD_CAT_ID   = 27424
ELEMENT_SET_NO = 999
REV_AT_EPOCH   = 25494
BSTAR          = .49689186E-3
MEAN_MOTION_DOT = .2431E-4
MEAN_MOTION_DDOT = 0

CCSDS_OMM_VERS = 2.0
CREATION_DATE  = 
ORIGINATOR     = 

OBJECT_NAME    = CZ-4B R/B
OBJECT_ID      = 2002-024C
CENTER_NAME    = EARTH
REF_FRAME      = TEME
TIME_SYSTEM    = UTC
MEAN_ELEMENT_THEORY = SGP/SGP4

EPOCH          = 2025-12-05T03:32:10.771296
MEAN_MOTION    = 14.14525459
ECCENTRICITY   = .00492112
INCLINATION    = 98.9010
RA_OF_ASC_NODE = 27.9451
ARG_OF_PERICENTER = 291.9022
MEAN_ANOMALY   = 127.3136

EPHEMERIS_TYPE = 0
CLASSIFICATION_TYPE = U
NORAD_CAT_ID   = 27432
ELEMENT_SET_NO = 999
REV_AT_EPOCH   = 21587
BSTAR          = .10028085E-3
MEAN_MOTION_DOT = .149E-5
MEAN_MOTION_DDOT = 0

CCSDS_OMM_VERS = 2.0
CREATION_DATE  = 
ORIGINATOR     = 

OBJECT_NAME    = MIDORI II (ADEOS-II)
OBJECT_ID      = 2002-056A
CENTER_NAME    = EARTH
REF_FRAME      = TEME
TIME_SYSTEM    = UTC
MEAN_ELEMENT_THEORY = SGP/SGP4

EPOCH          = 2025-12-05T07:04:02.481888
MEAN_MOTION    = 14.29197994
ECCENTRICITY   = .00002228
INCLINATION    = 98.7625
RA_OF_ASC_NODE = 292.2122
ARG_OF_PERICENTER = 7.1080
MEAN_ANOMALY   = 353.0104

EPHEMERIS_TYPE = 0
CLASSIFICATION_TYPE = U
NORAD_CAT_ID   = 27597
ELEMENT_SET_NO = 999
REV_AT_EPOCH   = 19681
BSTAR          = .23501812E-3
MEAN_MOTION_DOT = .552E-5
MEAN_MOTION_DDOT = 0

CCSDS_OMM_VERS = 2.0
CREATION_DATE  = 
ORIGINATOR     = 

OBJECT_NAME    = H-2A R/B
OBJECT_ID      = 2002-056E
CENTER_NAME    = EARTH
REF_FRAME      = TEME
TIME_SYSTEM    = UTC
MEAN_ELEMENT_THEORY = SGP/SGP4

EPOCH          = 2025-12-04T20:42:17.591040
MEAN_MOTION    = 14.33666492
ECCENTRICITY   = .0071506
INCLINATION    = 98.3051
RA_OF_ASC_NODE = 297.9336
ARG_OF_PERICENTER = 84.2452
MEAN_ANOMALY   = 330.0012

EPHEMERIS_TYPE = 0
CLASSIFICATION_TYPE = U
NORAD_CAT_ID   = 27601
ELEMENT_SET_NO = 999
REV_AT_EPOCH   = 20052
BSTAR          = .24331E-3
MEAN_MOTION_DOT = .653E-5
MEAN_MOTION_DDOT = 0

CCSDS_OMM_VERS = 2.0
CREATION_DATE  = 
ORIGINATOR     = 

OBJECT_NAME    = CZ-4B R/B
OBJECT_ID      = 2003-049C
CENTER_NAME    = EARTH
REF_FRAME      = TEME
TIME_SYSTEM    = UTC
MEAN_ELEMENT_THEORY = SGP/SGP4

EPOCH          = 2025-12-04T23:04:56.970336
MEAN_MOTION    = 14.54898778
ECCENTRICITY   = .0048598
INCLINATION    = 98.6781
RA_OF_ASC_NODE = 325.2321
ARG_OF_PERICENTER = 159.5512
MEAN_ANOMALY   = 200.7643

EPHEMERIS_TYPE = 0
CLASSIFICATION_TYPE = U
NORAD_CAT_ID   = 28059
ELEMENT_SET_NO = 999
REV_AT_EPOCH   = 17282
BSTAR          = .18971E-3
MEAN_MOTION_DOT = .777E-5
MEAN_MOTION_DDOT = 0

CCSDS_OMM_VERS = 2.0
CREATION_DATE  = 
ORIGINATOR     = 

OBJECT_NAME    = CZ-2C R/B
OBJECT_ID      = 2004-012C
CENTER_NAME    = EARTH
REF_FRAME      = TEME
TIME_SYSTEM    = UTC
MEAN_ELEMENT_THEORY = SGP/SGP4

EPOCH          = 2025-12-05T06:36:44.701632
MEAN_MOTION    = 15.54780596
ECCENTRICITY   = .0016787
INCLINATION    = 97.7434
RA_OF_ASC_NODE = 31.2846
ARG_OF_PERICENTER = 299.5634
MEAN_ANOMALY   = 60.3946

EPHEMERIS_TYPE = 0
CLASSIFICATION_TYPE = U
NORAD_CAT_ID   = 28222
ELEMENT_SET_NO = 999
REV_AT_EPOCH   = 18956
BSTAR          = .74904979E-3
MEAN_MOTION_DOT = .50251E-3
MEAN_MOTION_DDOT = 0

CCSDS_OMM_VERS = 2.0
CREATION_DATE  = 
ORIGINATOR     = 

OBJECT_NAME    = SL-16 R/B
OBJECT_ID      = 2004-021B
CENTER_NAME    = EARTH
REF_FRAME      = TEME
TIME_SYSTEM    = UTC
MEAN_ELEMENT_THEORY = SGP/SGP4

EPOCH          = 2025-12-05T06:24:57.052800
MEAN_MOTION    = 14.14582552
ECCENTRICITY   = .00056917
INCLINATION    = 71.0023
RA_OF_ASC_NODE = 70.6456
ARG_OF_PERICENTER = 210.6772
MEAN_ANOMALY   = 149.4019

EPHEMERIS_TYPE = 0
CLASSIFICATION_TYPE = U
NORAD_CAT_ID   = 28353
ELEMENT_SET_NO = 999
REV_AT_EPOCH   = 10948
BSTAR          = -.26277136E-4
MEAN_MOTION_DOT = -.98E-6
MEAN_MOTION_DDOT = 0

CCSDS_OMM_VERS = 2.0
CREATION_DATE  = 
ORIGINATOR     = 

OBJECT_NAME    = CZ-4B R/B
OBJECT_ID      = 2004-035C
CENTER_NAME    = EARTH
REF_FRAME      = TEME
TIME_SYSTEM    = UTC
MEAN_ELEMENT_THEORY = SGP/SGP4

EPOCH          = 2025-12-05T02:12:55.032768
MEAN_MOTION    = 15.27186481
ECCENTRICITY   = .00320219
INCLINATION    = 97.3611
RA_OF_ASC_NODE = 9.5395
ARG_OF_PERICENTER = 305.9699
MEAN_ANOMALY   = 53.8571

EPHEMERIS_TYPE = 0
CLASSIFICATION_TYPE = U
NORAD_CAT_ID   = 28415
ELEMENT_SET_NO = 999
REV_AT_EPOCH   = 16546
BSTAR          = .55792283E-3
MEAN_MOTION_DOT = .15032E-3
MEAN_MOTION_DDOT = 0

CCSDS_OMM_VERS = 2.0
CREATION_DATE  = 
ORIGINATOR     = 

OBJECT_NAME    = CZ-2C R/B
OBJECT_ID      = 2004-046B
CENTER_NAME    = EARTH
REF_FRAME      = TEME
TIME_SYSTEM    = UTC
MEAN_ELEMENT_THEORY = SGP/SGP4

EPOCH          = 2025-12-05T05:53:53.924064
MEAN_MOTION    = 14.26935357
ECCENTRICITY   = .01406621
INCLINATION    = 98.1983
RA_OF_ASC_NODE = 255.0897
ARG_OF_PERICENTER = 74.2900
MEAN_ANOMALY   = 287.3747

EPHEMERIS_TYPE = 0
CLASSIFICATION_TYPE = U
NORAD_CAT_ID   = 28480
ELEMENT_SET_NO = 999
REV_AT_EPOCH   = 9503
BSTAR          = .13871035E-3
MEAN_MOTION_DOT = .334E-5
MEAN_MOTION_DDOT = 0

CCSDS_OMM_VERS = 2.0
CREATION_DATE  = 
ORIGINATOR     = 

OBJECT_NAME    = ARIANE 5 R/B
OBJECT_ID      = 2004-049H
CENTER_NAME    = EARTH
REF_FRAME      = TEME
TIME_SYSTEM    = UTC
MEAN_ELEMENT_THEORY = SGP/SGP4

EPOCH          = 2025-12-05T07:23:36.123936
MEAN_MOTION    = 14.84985295
ECCENTRICITY   = .00835009
INCLINATION    = 98.2520
RA_OF_ASC_NODE = 139.3230
ARG_OF_PERICENTER = 297.3762
MEAN_ANOMALY   = 61.8973

EPHEMERIS_TYPE = 0
CLASSIFICATION_TYPE = U
NORAD_CAT_ID   = 28499
ELEMENT_SET_NO = 999
REV_AT_EPOCH   = 13178
BSTAR          = .21245989E-3
MEAN_MOTION_DOT = .1862E-4
MEAN_MOTION_DDOT = 0

CCSDS_OMM_VERS = 2.0
CREATION_DATE  = 
ORIGINATOR     = 

OBJECT_NAME    = CZ-2D R/B
OBJECT_ID      = 2005-024B
CENTER_NAME    = EARTH
REF_FRAME      = TEME
TIME_SYSTEM    = UTC
MEAN_ELEMENT_THEORY = SGP/SGP4

EPOCH          = 2025-12-04T23:44:36.823776
MEAN_MOTION    = 15.52606734
ECCENTRICITY   = .00066826
INCLINATION    = 97.3627
RA_OF_ASC_NODE = 346.2370
ARG_OF_PERICENTER = 31.7339
MEAN_ANOMALY   = 328.4316

EPHEMERIS_TYPE = 0
CLASSIFICATION_TYPE = U
NORAD_CAT_ID   = 28738
ELEMENT_SET_NO = 999
REV_AT_EPOCH   = 12505
BSTAR          = .65382984E-3
MEAN_MOTION_DOT = .40276E-3
MEAN_MOTION_DDOT = 0

