IDEFIX & ARIANE 42P R/B 
1 27422U 02021B   25339.31117018  .00000606  00000+0  24689-3 0  9999
2 27422  98.5777 274.0989 0012864 103.6661 256.5955 14.30941837230524
AQUA                    
1 27424U 02022A   25339.30579911  .00002431  00000+0  49689-3 0  9990
2 27424  98.4025 300.0643 0000847 111.3897 356.5490 14.61781360254947
CZ-4B R/B               
1 27432U 02024C   25339.14734689  .00000149  00000+0  10028-3 0  9997
2 27432  98.9010  27.9451 0049211 291.9022 127.3136 14.14525459215873
MIDORI II (ADEOS-II)    
1 27597U 02056A   25339.29447317  .00000552  00000+0  23502-3 0  9998
2 27597  98.7625 292.2122 0000222   7.1080 353.0104 14.29197994196817
H-2A R/B                
1 27601U 02056E   25338.86270360  .00000653  00000+0  24331-3 0  9991
2 27601  98.3051 297.9336 0071506  84.2452 330.0012 14.33666492200529
CZ-4B R/B               
1 28059U 03049C   25338.96177049  .00000777  00000+0  18971-3 0  9993
2 28059  98.6781 325.2321 0048598 159.5512 200.7643 14.54898778172828
CZ-2C R/B               
1 28222U 04012C   25339.27551738  .00050251  00000+0  74905-3 0  9993
2 28222  97.7434  31.2846 0016787 299.5634  60.3946 15.54780596189560
SL-16 R/B               
1 28353U 04021B   25339.26732700 -.00000098  00000+0 -26277-4 0  9993
2 28353  71.0023  70.6456 0005691 210.6772 149.4019 14.14582552109487
CZ-4B R/B               
1 28415U 04035C   25339.09230362  .00015032  00000+0  55792-3 0  9990
2 28415  97.3611   9.5395 0032021 305.9699  53.8571 15.27186481165463
CZ-2C R/B               
1 28480U 04046B   25339.24576301  .00000334  00000+0  13871-3 0  9998
2 28480  98.1983 255.0897 0140662  74.2900 287.3747 14.26935357 95039
ARIANE 5 R/B            
1 28499U 04049H   25339.30805699  .00001862  00000+0  21246-3 0  9995
2 28499  98.2520 139.3230 0083500 297.3762  61.8973 14.84985295131782
CZ-2D R/B               
1 28738U 05024B   25338.98931509  .00040276  00000+0  65383-3 0  9990
2 28738  97.3627 346.2370 0006682  31.7339 328.4316 15.52606734125056
